COMMENT,ORIGINATOR,NORAD_CAT_ID,OBJECT_NAME,OBJECT_TYPE,CLASSIFICATION_TYPE,INTLDES,EPOCH,EPOCH_MICROSECONDS,MEAN_MOTION,ECCENTRICITY,INCLINATION,RA_OF_ASC_NODE,ARG_OF_PERICENTER,MEAN_ANOMALY,EPHEMERIS_TYPE,ELEMENT_SET_NO,REV_AT_EPOCH,BSTAR,MEAN_MOTION_DOT,MEAN_MOTION_DDOT,FILE,TLE_LINE0,TLE_LINE1,TLE_LINE2,OBJECT_ID,OBJECT_NUMBER,SEMIMAJOR_AXIS,PERIOD,APOGEE,PERIGEE,DECAYED
GENERATED VIA SPACETRACK.ORG API,18 SPCS,4084,SL-8 DEB,DEBRIS,U,69070C,2024-03-21 22:52:12,624960,14.46513872,0.0021132,74.0686,39.5144,143.5761,216.6841,0,999,87757,0.00011037,3.72e-06,0,4237326,0 SL-8 DEB,1 04084U 69070C   24081.95292390  .00000372  00000-0  11037-3 0  9999,2 04084  74.0686  39.5144 0021132 143.5761 216.6841 14.46513872877574,1969-070C,4084,7115.194,99.55,752.095,722.024,0
GENERATED VIA SPACETRACK.ORG API,18 SPCS,4084,SL-8 DEB,DEBRIS,U,69070C,2024-03-22 07:10:09,739776,14.46514073,0.0021126,74.0687,38.8699,142.8004,217.4623,0,999,87762,0.00011005,3.71e-06,0,4238588,0 SL-8 DEB,1 04084U 69070C   24082.29872384  .00000371  00000-0  11005-3 0  9998,2 04084  74.0687  38.8699 0021126 142.8004 217.4623 14.46514073877624,1969-070C,4084,7115.194,99.55,752.09,722.027,0
GENERATED VIA SPACETRACK.ORG API,18 SPCS,4084,SL-8 DEB,DEBRIS,U,69070C,2024-03-22 22:06:28,508256,14.46514481,0.0021102,74.0688,37.71,141.4618,218.8052,0,999,87771,0.00010413,3.49e-06,0,4239209,0 SL-8 DEB,1 04084U 69070C   24082.92116329  .00000349  00000-0  10413-3 0  9995,2 04084  74.0688  37.7100 0021102 141.4618 218.8052 14.46514481877714,1969-070C,4084,7115.192,99.55,752.072,722.043,0
GENERATED VIA SPACETRACK.ORG API,18 SPCS,4084,SL-8 DEB,DEBRIS,U,69070C,2024-03-23 04:44:50,186976,14.46515058,0.0021089,74.0689,37.1944,140.864,219.4048,0,999,87773,0.00012577,4.27e-06,0,4239536,0 SL-8 DEB,1  4084U 69070C   24083.19780309  .00000427  00000-0  12577-3 0  9990,2  4084  74.0689  37.1944 0021089 140.8640 219.4048 14.46515058877732,1969-070C,4084,7115.191,99.55,752.061,722.05,0
GENERATED VIA SPACETRACK.ORG API,18 SPCS,4084,SL-8 DEB,DEBRIS,U,69070C,2024-03-23 23:00:19,717056,14.46515786,0.0021073,74.0691,35.7768,139.1824,221.0918,0,999,87786,0.00012139,4.12e-06,0,4241084,0 SL-8 DEB,1 04084U 69070C   24083.95856154  .00000412  00000-0  12139-3 0  9994,2 04084  74.0691  35.7768 0021073 139.1824 221.0918 14.46515786877868,1969-070C,4084,7115.188,99.55,752.047,722.059,0
GENERATED VIA SPACETRACK.ORG API,18 SPCS,4084,SL-8 DEB,DEBRIS,U,69070C,2024-03-24 07:18:16,774848,14.46516434,0.0021059,74.0691,35.1324,138.407,221.8695,0,999,87791,0.00013909,4.75e-06,0,4242350,0 SL-8 DEB,1 04084U 69070C   24084.30436082  .00000475  00000-0  13909-3 0  9993,2 04084  74.0691  35.1324 0021059 138.4070 221.8695 14.46516434877916,1969-070C,4084,7115.186,99.55,752.035,722.067,0
GENERATED VIA SPACETRACK.ORG API,18 SPCS,4084,SL-8 DEB,DEBRIS,U,69070C,2024-03-24 22:14:35,306592,14.46520922,0.002106,74.0693,33.9724,137.05,223.2308,0,999,87800,0.00031171,1.099e-05,0,4243115,0 SL-8 DEB,1 04084U 69070C   24084.92679753  .00001099  00000-0  31171-3 0  9999,2 04084  74.0693  33.9724 0021060 137.0500 223.2308 14.46520922878008,1969-070C,4084,7115.171,99.549,752.021,722.052,0
GENERATED VIA SPACETRACK.ORG API,18 SPCS,4084,SL-8 DEB,DEBRIS,U,69070C,2024-03-25 04:52:57,34560,14.46518125,0.0021043,74.0693,33.4569,136.4107,223.8719,0,999,87802,0.00017137,5.92e-06,0,4243445,0 SL-8 DEB,1  4084U 69070C   24085.20343790  .00000592  00000-0  17137-3 0  9993,2  4084  74.0693  33.4569 0021043 136.4107 223.8719 14.46518125878023,1969-070C,4084,7115.18,99.549,752.018,722.073,0
GENERATED VIA SPACETRACK.ORG API,18 SPCS,4084,SL-8 DEB,DEBRIS,U,69070C,2024-03-25 21:28:51,69792,14.46519201,0.0021031,74.0694,32.1681,134.8685,225.4186,0,999,87814,0.00018692,6.48e-06,0,4245511,0 SL-8 DEB,1 04084U 69070C   24085.89503553  .00000648  00000-0  18692-3 0  9992,2 04084  74.0694  32.1681 0021031 134.8685 225.4186 14.46519201878140,1969-070C,4084,7115.177,99.549,752.006,722.078,0
GENERATED VIA SPACETRACK.ORG API,18 SPCS,4084,SL-8 DEB,DEBRIS,U,69070C,2024-03-26 14:04:45,103296,14.4651924,0.0021012,74.0696,30.8793,133.3335,226.958,0,999,87824,0.00015565,5.35e-06,0,4246985,0 SL-8 DEB,1 04084U 69070C   24086.58663314  .00000535  00000-0  15565-3 0  9992,2 04084  74.0696  30.8793 0021012 133.3335 226.9580 14.46519240878244,1969-070C,4084,7115.177,99.549,751.992,722.091,0
GENERATED VIA SPACETRACK.ORG API,18 SPCS,4084,SL-8 DEB,DEBRIS,U,69070C,2024-03-26 22:22:42,104064,14.46519225,0.0021008,74.0697,30.2349,132.568,227.7256,0,999,87829,0.000136,4.64e-06,0,4247357,0 SL-8 DEB,1 04084U 69070C   24086.93243176  .00000464  00000-0  13600-3 0  9990,2 04084  74.0697  30.2349 0021008 132.5680 227.7256 14.46519225878292,1969-070C,4084,7115.177,99.549,751.989,722.094,0
GENERATED VIA SPACETRACK.ORG API,18 SPCS,4084,SL-8 DEB,DEBRIS,U,69070C,2024-03-27 05:01:03,702432,14.4651962,0.0020999,74.0697,29.7194,131.9548,228.3405,0,999,87831,0.00014431,4.94e-06,0,4247419,0 SL-8 DEB,1  4084U 69070C   24087.20907063  .00000494  00000-0  14431-3 0  9999,2  4084  74.0697  29.7194 0020999 131.9548 228.3405 14.46519620878312,1969-070C,4084,7115.176,99.549,751.982,722.099,0
GENERATED VIA SPACETRACK.ORG API,18 SPCS,4084,SL-8 DEB,DEBRIS,U,69070C,2024-03-27 13:19:00,674688,14.46519528,0.0020987,74.0698,29.075,131.1859,229.1114,0,999,87838,0.00011828,4e-06,0,4247956,0 SL-8 DEB,1 04084U 69070C   24087.55486892  .00000400  00000-0  11828-3 0  9993,2 04084  74.0698  29.0750 0020987 131.1859 229.1114 14.46519528878388,1969-070C,4084,7115.176,99.549,751.974,722.108,0
GENERATED VIA SPACETRACK.ORG API,18 SPCS,4084,SL-8 DEB,DEBRIS,U,69070C,2024-03-27 21:36:57,645216,14.46519905,0.0020977,74.0698,28.4306,130.4415,229.8578,0,999,87843,0.00011853,4.01e-06,0,4248304,0 SL-8 DEB,1 04084U 69070C   24087.90066719  .00000401  00000-0  11853-3 0  9993,2 04084  74.0698  28.4306 0020977 130.4415 229.8578 14.46519905878433,1969-070C,4084,7115.175,99.549,751.965,722.114,0
GENERATED VIA SPACETRACK.ORG API,18 SPCS,4084,SL-8 DEB,DEBRIS,U,69070C,2024-03-28 12:33:16,180416,14.46520534,0.0020946,74.0699,27.2708,129.0571,231.2456,0,999,87852,0.00011888,4.03e-06,0,4249182,0 SL-8 DEB,1 04084U 69070C   24088.52310394  .00000403  00000-0  11888-3 0  9993,2 04084  74.0699  27.2708 0020946 129.0571 231.2456 14.46520534878522,1969-070C,4084,7115.173,99.549,751.941,722.134,0
GENERATED VIA SPACETRACK.ORG API,18 SPCS,4084,SL-8 DEB,DEBRIS,U,69070C,2024-03-28 22:30:48,529152,14.46520917,0.0020935,74.07,26.4975,128.1333,232.1716,0,999,87858,0.00011746,3.97e-06,0,4249475,0 SL-8 DEB,1 04084U 69070C   24088.93806168  .00000397  00000-0  11746-3 0  9992,2 04084  74.0700  26.4975 0020935 128.1333 232.1716 14.46520917878586,1969-070C,4084,7115.171,99.549,751.932,722.141,0
GENERATED VIA SPACETRACK.ORG API,18 SPCS,4084,SL-8 DEB,DEBRIS,U,69070C,2024-03-29 05:09:10,88640,14.46521197,0.0020925,74.07,25.982,127.5154,232.7911,0,999,87860,0.0001193,4.04e-06,0,4249668,0 SL-8 DEB,1  4084U 69070C   24089.21470010  .00000404  00000-0  11930-3 0  9991,2  4084  74.0700  25.9820 0020925 127.5154 232.7911 14.46521197878609,1969-070C,4084,7115.17,99.549,751.924,722.147,0
GENERATED VIA SPACETRACK.ORG API,18 SPCS,4084,SL-8 DEB,DEBRIS,U,69070C,2024-03-29 13:27:07,11648,14.46521778,0.0020919,74.07,25.3376,126.7514,233.557,0,999,87867,0.00012847,4.37e-06,0,4250244,0 SL-8 DEB,1 04084U 69070C   24089.56049782  .00000437  00000-0  12847-3 0  9991,2 04084  74.0700  25.3376 0020919 126.7514 233.5570 14.46521778878675,1969-070C,4084,7115.169,99.549,751.918,722.149,0
GENERATED VIA SPACETRACK.ORG API,18 SPCS,4084,SL-8 DEB,DEBRIS,U,69070C,2024-03-29 21:45:03,958848,14.46521989,0.0020909,74.0701,24.6933,125.998,234.3121,0,999,87872,0.00012436,4.22e-06,0,4251655,0 SL-8 DEB,1 04084U 69070C   24089.90629582  .00000422  00000-0  12436-3 0  9999,2 04084  74.0701  24.6933 0020909 125.9980 234.3121 14.46521989878725,1969-070C,4084,7115.168,99.549,751.91,722.156,0
GENERATED VIA SPACETRACK.ORG API,18 SPCS,4084,SL-8 DEB,DEBRIS,U,69070C,2024-03-30 12:41:22,435296,14.46522086,0.0020893,74.0702,23.5334,124.5972,235.7161,0,999,87881,0.00010246,3.43e-06,0,4253807,0 SL-8 DEB,1 04084U 69070C   24090.52873189  .00000343  00000-0  10246-3 0  9992,2 04084  74.0702  23.5334 0020893 124.5972 235.7161 14.46522086878815,1969-070C,4084,7115.168,99.549,751.898,722.167,0
GENERATED VIA SPACETRACK.ORG API,18 SPCS,4084,SL-8 DEB,DEBRIS,U,69070C,2024-03-30 22:38:54,724416,14.46522916,0.0020885,74.0702,22.7602,123.6903,236.6251,0,999,87887,0.00012474,4.24e-06,0,4254317,0 SL-8 DEB,1 04084U 69070C   24090.94368894  .00000424  00000-0  12474-3 0  9995,2 04084  74.0702  22.7602 0020885 123.6903 236.6251 14.46522916878877,1969-070C,4084,7115.165,99.549,751.89,722.17,0
GENERATED VIA SPACETRACK.ORG API,18 SPCS,4084,SL-8 DEB,DEBRIS,U,69070C,2024-03-31 05:17:16,255392,14.46522985,0.0020875,74.0702,22.2446,123.0712,237.2455,0,999,87889,0.00011741,3.97e-06,0,4254530,0 SL-8 DEB,1  4084U 69070C   24091.22032703  .00000397  00000-0  11741-3 0  9999,2  4084  74.0702  22.2446 0020875 123.0712 237.2455 14.46522985878890,1969-070C,4084,7115.165,99.549,751.882,722.177,0
GENERATED VIA SPACETRACK.ORG API,18 SPCS,4084,SL-8 DEB,DEBRIS,U,69070C,2024-03-31 11:55:37,801920,14.46522645,0.0020867,74.0702,21.7291,122.4456,237.8724,0,999,87895,9.155e-05,3.04e-06,0,4255611,0 SL-8 DEB,1 04084U 69070C   24091.49696530  .00000304  00000-0  91550-4 0  9997,2 04084  74.0702  21.7291 0020867 122.4456 237.8724 14.46522645878956,1969-070C,4084,7115.166,99.549,751.878,722.183,0
GENERATED VIA SPACETRACK.ORG API,18 SPCS,4084,SL-8 DEB,DEBRIS,U,69070C,2024-03-31 21:53:10,92768,14.46522864,0.0020859,74.0702,20.9559,121.5323,238.7876,0,999,87901,8.6666e-05,2.86e-06,0,4256238,0 SL-8 DEB,1 04084U 69070C   24091.91192237  .00000286  00000-0  86666-4 0  9990,2 04084  74.0702  20.9559 0020859 121.5323 238.7876 14.46522864879017,1969-070C,4084,7115.165,99.549,751.871,722.188,0
